IRIDIUM 150             
1 43257U 18030J   23267.78392448  .00000464  00000+0  15848-3 0  9990
2 43257  86.4024 346.9066 0002001  85.9163 274.2261 14.34220310287366
IRIDIUM 143             
1 43258U 18030K   23268.11374129  .00000448  00000+0  15298-3 0  9996
2 43258  86.4024 346.8214 0001954  95.7110 264.4309 14.34219699287359
IRIDIUM 161             
1 43478U 18047C   23267.81550671  .00000525  00000+0  15011-3 0  9991
2 43478  86.4520 144.9266 0002198  82.3823 277.7627 14.43285086281427
IRIDIUM 152             
1 43479U 18047D   23267.73762932  .00000413  00000+0  14026-3 0  9999
2 43479  86.3993 144.8190 0001844  88.3376 271.8031 14.34218695279661
IRIDIUM 147             
1 43480U 18047E   23267.74395086  .00000120  00000+0  35936-4 0  9993
2 43480  86.3996 144.8040 0002296  83.8675 276.2782 14.34222368279668
IRIDIUM 110             
1 43481U 18047F   23267.82007471  .00000420  00000+0  14301-3 0  9996
2 43481  86.3998 144.8381 0002297  79.1745 280.9710 14.34215245279665
IRIDIUM 162             
1 43482U 18047G   23268.08650413  .00000546  00000+0  15618-3 0  9997
2 43482  86.4517 144.7171 0002127  82.6215 277.5227 14.43283698281455
IRIDIUM 160             
1 43569U 18061A   23267.69614191  .00000399  00000+0  13544-3 0  9990
2 43569  86.3930 113.2686 0002150  93.8345 266.3096 14.34216511270543
